[{"OBJECT_NAME":"STARLINK-36564","OBJECT_ID":"2026-014T","EPOCH":"2026-03-09T15:17:41.786880","MEAN_MOTION":15.75229144,"ECCENTRICITY":7.65e-5,"INCLINATION":97.2845,"RA_OF_ASC_NODE":313.5439,"ARG_OF_PERICENTER":60.982,"MEAN_ANOMALY":299.1521,"EPHEMERIS_TYPE":0,"CLASSIFICATION_TYPE":"U","NORAD_CAT_ID":67549,"ELEMENT_SET_NO":999,"REV_AT_EPOCH":850,"BSTAR":0.0012902,"MEAN_MOTION_DOT":0.00197159,"MEAN_MOTION_DDOT":0},{"OBJECT_NAME":"FLOCK 4BE-10","OBJECT_ID":"2024-149AM","EPOCH":"2026-03-09T23:11:04.477920","MEAN_MOTION":15.73804605,"ECCENTRICITY":0.00059918,"INCLINATION":97.3736,"RA_OF_ASC_NODE":155.157,"ARG_OF_PERICENTER":229.3829,"MEAN_ANOMALY":130.6914,"EPHEMERIS_TYPE":0,"CLASSIFICATION_TYPE":"U","NORAD_CAT_ID":60503,"ELEMENT_SET_NO":999,"REV_AT_EPOCH":8723,"BSTAR":0.0018232079,"MEAN_MOTION_DOT":0.00264399,"MEAN_MOTION_DDOT":0}]
